ES'HAIL 2               
1 43700U 18090A   26199.73809396  .00000137  00000+0  00000+0 0  9993
2 43700   0.0167  76.3630 0002366  81.6518  70.0161  1.00273048 27998
GEO-KOMPSAT-2A          
1 43823U 18100A   26199.71898374 -.00000350  00000+0  00000+0 0  9991
2 43823   0.0293 155.2837 0002339 300.9900 227.3318  1.00272974 27945
GSAT-11                 
1 43824U 18100B   26199.84558537 -.00000083  00000+0  00000+0 0  9993
2 43824   0.0453 242.8286 0007809 215.5871 216.6357  1.00271587 27796
GSAT-7A                 
1 43864U 18105A   26199.89374897  .00000020  00000+0  00000+0 0  9992
2 43864   0.0939  91.2568 0001824  21.3143 208.6136  1.00272422 27766
COSMOS 2533             
1 43867U 18107A   26198.82581317 -.00000046  00000+0  00000+0 0  9995
2 43867   0.0367 115.1601 0000345 128.5769  59.1725  1.00266380 27757
TJS-3                   
1 43874U 18110A   26199.77359948 -.00000224  00000+0  00000+0 0  9993
2 43874   2.6244  80.1123 0002635  86.7640 196.4115  1.00271366 27730
ZHONGXING-2D            
1 43920U 19001A   26199.75729358  .00000000  00000+0  00000+0 0  9990
2 43920   0.0161 232.5187 0000515 125.5368 341.1462  1.00272205 54398
HELLAS-SAT 4 & SGS-1    
1 44034U 19007A   26199.84194189  .00000146  00000+0  00000+0 0  9992
2 44034   0.0662 125.1867 0005727  23.7013 129.8545  1.00272918 27685
GSAT-31                 
1 44035U 19007B   26199.84969889  .00000119  00000+0  00000+0 0  9990
2 44035   0.0239 100.9138 0000808 118.4056  71.0876  1.00272897 27289
NUSANTARA SATU          
1 44048U 19009A   26199.72253707 -.00000241  00000+0  00000+0 0  9995
2 44048   0.0309 118.7013 0004691   9.6939 214.2399  1.00270848 27088
ZHONGXING-6C            
1 44067U 19012A   26199.75729346 -.00000342  00000+0  00000+0 0  9992
2 44067   0.0544  65.0726 0014910 349.3896 285.1622  1.00273389 27052
WGS 10 (USA 291)        
1 44071U 19014A   26199.81841286  .00000040  00000+0  00000+0 0  9998
2 44071   0.0154  70.3519 0000097 103.8779 117.3075  1.00271457 26935
TIANLIAN 2-01           
1 44076U 19017A   26199.79904450 -.00000113  00000+0  00000+0 0  9998
2 44076   0.6197  83.0615 0001603  76.8166 141.3818  1.00271157 26966
ARABSAT-6A              
1 44186U 19021A   26199.74252257  .00000147  00000+0  00000+0 0  9997
2 44186   0.0464  18.6692 0001947 237.9938 337.7053  1.00275201 26478
BEIDOU-3 IGSO-1         
1 44204U 19023A   26197.32034861 -.00000209  00000+0  00000+0 0  9991
2 44204  58.7368  37.3490 0025911 224.0979 267.2124  1.00282972  7507
BEIDOU-2 G8             
1 44231U 19027A   26199.72227708 -.00000255  00000+0  00000+0 0  9996
2 44231   1.7364  74.5131 0009673 282.4071 344.1402  1.00270682 26391
YAMAL 601               
1 44307U 19031A   26198.99049794  .00000111  00000+0  00000+0 0  9990
2 44307   0.0159  75.3422 0002406  35.3471 230.6896  1.00272936 26230
AT&T T-16               
1 44333U 19034A   26199.58308632 -.00000122  00000+0  00000+0 0  9990
2 44333   0.0125  72.6319 0001002 281.2295  51.5735  1.00268577 25949
EUTELSAT 7C             
1 44334U 19034B   26199.26729441  .00000040  00000+0  00000+0 0  9999
2 44334   0.0771 179.8913 0003301 282.0063 297.4062  1.00270345  7145
BEIDOU-3 IGSO-2         
1 44337U 19035A   26199.90456758 -.00000118  00000+0  00000+0 0  9999
2 44337  55.2516 158.5837 0039250 216.2895   5.7643  1.00256282 25981
COSMOS 2539             
1 44457U 19048A   26199.91048630  .00000075  00000+0  00000+0 0  9994
2 44457   0.0324 106.7692 0000819  46.3542 123.3559  1.00273275 25549
EDRS-C                  
1 44475U 19049A   26199.72184375 -.00000269  00000+0  00000+0 0  9997
2 44475   0.0136 124.5613 0001019   9.9212 204.3952  1.00271072 25521
INTELSAT 39 (IS-39)     
1 44476U 19049B   26199.42075133  .00000026  00000+0  00000+0 0  9996
2 44476   0.0160  58.7592 0000903 296.7568 154.1129  1.00271488 25444
AMOS-17                 
1 44479U 19050A   26199.55438536  .00000103  00000+0  00000+0 0  9991
2 44479   0.0174 358.4035 0001589 128.9330  25.6248  1.00275273 25505
AEHF-5 (USA 292)        
1 44481U 19051A   26199.75183605 -.00000264  00000+0  00000+0 0  9990
2 44481   1.4282 338.7010 0064845 357.4357 324.1547  1.00273065 25572
EUTELSAT 5 WEST B       
1 44624U 19067A   26199.79072490 -.00000049  00000+0  00000+0 0  9990
2 44624   0.0783 320.3585 0003100 157.4287  98.4504  1.00271159 24758
TJS-4                   
1 44637U 19070A   26199.87470648 -.00000177  00000+0  00000+0 0  9996
2 44637   0.1005 260.0896 0000271  34.1065  40.9351  1.00273766 24855
TIBA-1                  
1 44800U 19080A   26199.48666883  .00000148  00000+0  00000+0 0  9991
2 44800   0.0554  24.1999 0002038 103.0586  19.7028  1.00272887 24370
INMARSAT GX5            
1 44801U 19080B   26199.82589838  .00000068  00000+0  00000+0 0  9995
2 44801   0.0349  14.3133 0002143 114.6942 115.9453  1.00269893  7101
JCSAT-18 (KACIFIC 1)    
1 44868U 19091A   26199.63920140  .00000000  00000+0  00000+0 0  9990
2 44868   0.0110 259.2976 0000436 311.6934 105.5404  1.00266788 24322
ELEKTRO-L 3             
1 44903U 19095A   26200.16483560 -.00000102  00000+0  00000+0 0  9999
2 44903   0.3374  82.3609 0001481  18.7927 331.1277  1.00271683 24025
SHIJIAN-20 (SJ-20)      
1 44910U 19097A   26199.75044516  .00000127  00000+0  00000+0 0  9991
2 44910   4.9973  74.6760 0015491  57.6721 119.1269  1.00271182 24018
