OBJECT_NAME,OBJECT_ID,EPOCH,MEAN_MOTION,ECCENTRICITY,INCLINATION,RA_OF_ASC_NODE,ARG_OF_PERICENTER,MEAN_ANOMALY,EPHEMERIS_TYPE,CLASSIFICATION_TYPE,NORAD_CAT_ID,ELEMENT_SET_NO,REV_AT_EPOCH,BSTAR,MEAN_MOTION_DOT,MEAN_MOTION_DDOT
ES'HAIL 2,2018-090A,2026-07-18T17:42:51.318144,1.00273048,.0002366,0.0167,76.3630,81.6518,70.0161,0,U,43700,999,2799,0,.137E-5,0
GEO-KOMPSAT-2A,2018-100A,2026-07-18T17:15:20.195136,1.00272974,.0002339,0.0293,155.2837,300.9900,227.3318,0,U,43823,999,2794,0,-.35E-5,0
GSAT-11,2018-100B,2026-07-18T20:17:38.575968,1.00271587,.0007809,0.0453,242.8286,215.5871,216.6357,0,U,43824,999,2779,0,-.83E-6,0
GSAT-7A,2018-105A,2026-07-18T21:26:59.911008,1.00272422,.0001824,0.0939,91.2568,21.3143,208.6136,0,U,43864,999,2776,0,.2E-6,0
COSMOS 2533,2018-107A,2026-07-17T19:49:10.257888,1.00266380,.00003459,0.0367,115.1601,128.5769,59.1725,0,U,43867,999,2775,0,-.46E-6,0
TJS-3,2018-110A,2026-07-18T18:33:58.995072,1.00271366,.0002635,2.6244,80.1123,86.7640,196.4115,0,U,43874,999,2773,0,-.224E-5,0
ZHONGXING-2D,2019-001A,2026-07-18T18:10:30.165312,1.00272205,.0000515,0.0161,232.5187,125.5368,341.1462,0,U,43920,999,5439,0,0,0
HELLAS-SAT 4 & SGS-1,2019-007A,2026-07-18T20:12:23.779296,1.00272918,.0005727,0.0662,125.1867,23.7013,129.8545,0,U,44034,999,2768,0,.146E-5,0
GSAT-31,2019-007B,2026-07-18T20:23:33.984096,1.00272897,.0000808,0.0239,100.9138,118.4056,71.0876,0,U,44035,999,2728,0,.119E-5,0
NUSANTARA SATU,2019-009A,2026-07-18T17:20:27.202848,1.00270848,.0004691,0.0309,118.7013,9.6939,214.2399,0,U,44048,999,2708,0,-.241E-5,0
ZHONGXING-6C,2019-012A,2026-07-18T18:10:30.154944,1.00273389,.001491,0.0544,65.0726,349.3896,285.1622,0,U,44067,999,2705,0,-.342E-5,0
WGS 10 (USA 291),2019-014A,2026-07-18T19:38:30.871104,1.00271457,.0000097,0.0154,70.3519,103.8779,117.3075,0,U,44071,999,2693,0,.4E-6,0
TIANLIAN 2-01,2019-017A,2026-07-18T19:10:37.444800,1.00271157,.0001603,0.6197,83.0615,76.8166,141.3818,0,U,44076,999,2696,0,-.113E-5,0
ARABSAT-6A,2019-021A,2026-07-18T17:49:13.950048,1.00275201,.0001947,0.0464,18.6692,237.9938,337.7053,0,U,44186,999,2647,0,.147E-5,0
BEIDOU-3 IGSO-1,2019-023A,2026-07-16T07:41:18.119904,1.00282972,.00259114,58.7368,37.3490,224.0979,267.2124,0,U,44204,999,750,0,-.209E-5,0
BEIDOU-2 G8,2019-027A,2026-07-18T17:20:04.739712,1.00270682,.0009673,1.7364,74.5131,282.4071,344.1402,0,U,44231,999,2639,0,-.255E-5,0
YAMAL 601,2019-031A,2026-07-17T23:46:19.022016,1.00272936,.00024062,0.0159,75.3422,35.3471,230.6896,0,U,44307,999,2623,0,.111E-5,0
AT&T T-16,2019-034A,2026-07-18T13:59:38.658048,1.00268577,.0001002,0.0125,72.6319,281.2295,51.5735,0,U,44333,999,2594,0,-.122E-5,0
EUTELSAT 7C,2019-034B,2026-07-18T06:24:54.237024,1.00270345,.00033016,0.0771,179.8913,282.0063,297.4062,0,U,44334,999,714,0,.4E-6,0
BEIDOU-3 IGSO-2,2019-035A,2026-07-18T21:42:34.638912,1.00256282,.003925,55.2516,158.5837,216.2895,5.7643,0,U,44337,999,2598,0,-.118E-5,0
COSMOS 2539,2019-048A,2026-07-18T21:51:06.016320,1.00273275,.0000819,0.0324,106.7692,46.3542,123.3559,0,U,44457,999,2554,0,.75E-6,0
EDRS-C,2019-049A,2026-07-18T17:19:27.300000,1.00271072,.0001019,0.0136,124.5613,9.9212,204.3952,0,U,44475,999,2552,0,-.269E-5,0
INTELSAT 39 (IS-39),2019-049B,2026-07-18T10:05:52.914912,1.00271488,.00009038,0.0160,58.7592,296.7568,154.1129,0,U,44476,999,2544,0,.26E-6,0
AMOS-17,2019-050A,2026-07-18T13:18:18.895104,1.00275273,.0001589,0.0174,358.4035,128.9330,25.6248,0,U,44479,999,2550,0,.103E-5,0
AEHF-5 (USA 292),2019-051A,2026-07-18T18:02:38.634720,1.00273065,.0064845,1.4282,338.7010,357.4357,324.1547,0,U,44481,999,2557,0,-.264E-5,0
EUTELSAT 5 WEST B,2019-067A,2026-07-18T18:58:38.631360,1.00271159,.00031,0.0783,320.3585,157.4287,98.4504,0,U,44624,999,2475,0,-.49E-6,0
TJS-4,2019-070A,2026-07-18T20:59:34.639872,1.00273766,.0000271,0.1005,260.0896,34.1065,40.9351,0,U,44637,999,2485,0,-.177E-5,0
TIBA-1,2019-080A,2026-07-18T11:40:48.186912,1.00272887,.00020381,0.0554,24.1999,103.0586,19.7028,0,U,44800,999,2437,0,.148E-5,0
INMARSAT GX5,2019-080B,2026-07-18T19:49:17.620032,1.00269893,.0002143,0.0349,14.3133,114.6942,115.9453,0,U,44801,999,710,0,.68E-6,0
JCSAT-18 (KACIFIC 1),2019-091A,2026-07-18T15:20:27.000960,1.00266788,.0000436,0.0110,259.2976,311.6934,105.5404,0,U,44868,999,2432,0,0,0
ELEKTRO-L 3,2019-095A,2026-07-19T03:57:21.795840,1.00271683,.0001481,0.3374,82.3609,18.7927,331.1277,0,U,44903,999,2402,0,-.102E-5,0
SHIJIAN-20 (SJ-20),2019-097A,2026-07-18T18:00:38.461824,1.00271182,.0015491,4.9973,74.6760,57.6721,119.1269,0,U,44910,999,2401,0,.127E-5,0
